[
    {
      "address": "hills rd",
      "name": "addenbrookes hospital",
      "id": "0",
      "phone": "01223216297",
      "department": "neurosciences critical care unit",
      "postcode": "cb20qq"
    },
    {
      "address": "hills rd",
      "name": "addenbrookes hospital",
      "id": "1",
      "phone": "01223216305",
      "department": "trauma high dependency unit",
      "postcode": "cb20qq"
    },
    {
      "address": "hills rd",
      "name": "addenbrookes hospital",
      "id": "2",
      "phone": "01223217216",
      "department": "neurology neurosurgery",
      "postcode": "cb20qq"
    },
    {
      "address": "hills rd",
      "name": "addenbrookes hospital",
      "id": "3",
      "phone": "01223216314",
      "department": "oncology neurosurgery",
      "postcode": "cb20qq"
    },
    {
      "address": "hills rd",
      "name": "addenbrookes hospital",
      "id": "4",
      "phone": "01223217231",
      "department": "children's oncology and haematology",
      "postcode": "cb20qq"
    },
    {
      "address": "hills rd",
      "name": "addenbrookes hospital",
      "id": "5",
      "phone": "01223217450",
      "department": "children's surgical and medicine",
      "postcode": "cb20qq"
    },
    {
      "address": "hills rd",
      "name": "addenbrookes hospital",
      "id": "6",
      "phone": "01223217261",
      "department": "acute medicine for the elderly",
      "postcode": "cb20qq"
    },
    {
      "address": "hills rd",
      "name": "addenbrookes hospital",
      "id": "7",
      "phone": "01223217195",
      "department": "general medicine and nephrology",
      "postcode": "cb20qq"
    },
    {
      "address": "hills rd",
      "name": "addenbrookes hospital",
      "id": "8",
      "phone": "01223216988",
      "department": "medicine for the elderly",
      "postcode": "cb20qq"
    },
    {
      "address": "hills rd",
      "name": "addenbrookes hospital",
      "id": "9",
      "phone": "01223217300",
      "department": "hepatobillary and gastrointestinal surgery regional referral centre",
      "postcode": "cb20qq"
    },
    {
      "address": "hills rd",
      "name": "addenbrookes hospital",
      "id": "10",
      "phone": "01223217279",
      "department": "trauma and orthopaedics",
      "postcode": "cb20qq"
    },
    {
      "address": "hills rd",
      "name": "addenbrookes hospital",
      "id": "11",
      "phone": "01223274222",
      "department": "teenage cancer trust unit",
      "postcode": "cb20qq"
    },
    {
      "address": "hills rd",
      "name": "addenbrookes hospital",
      "id": "12",
      "phone": "01223217312",
      "department": "haematology and haematological oncology",
      "postcode": "cb20qq"
    },
    {
      "address": "hills rd",
      "name": "addenbrookes hospital",
      "id": "13",
      "phone": "01223217250",
      "department": "children's surgical and medicine",
      "postcode": "cb20qq"
    },
    {
      "address": "hills rd",
      "name": "addenbrookes hospital",
      "id": "14",
      "phone": "01223348144",
      "department": "intermediate dependancy area",
      "postcode": "cb20qq"
    },
    {
      "address": "hills rd",
      "name": "addenbrookes hospital",
      "id": "15",
      "phone": "01223217712",
      "department": "hepatology",
      "postcode": "cb20qq"
    },
    {
      "address": "hills rd",
      "name": "addenbrookes hospital",
      "id": "16",
      "phone": "01223274679",
      "department": "haematology",
      "postcode": "cb20qq"
    },
    {
      "address": "hills rd",
      "name": "addenbrookes hospital",
      "id": "17",
      "phone": "01223274680",
      "department": "neurology",
      "postcode": "cb20qq"
    },
    {
      "address": "hills rd",
      "name": "addenbrookes hospital",
      "id": "18",
      "phone": "01223217303",
      "department": "surgery",
      "postcode": "cb20qq"
    },
    {
      "address": "hills rd",
      "name": "addenbrookes hospital",
      "id": "19",
      "phone": "01223217282",
      "department": "trauma and orthopaedics",
      "postcode": "cb20qq"
    },
    {
      "address": "hills rd",
      "name": "addenbrookes hospital",
      "id": "20",
      "phone": "01223217708",
      "department": "oncology",
      "postcode": "cb20qq"
    },
    {
      "address": "hills rd",
      "name": "addenbrookes hospital",
      "id": "21",
      "phone": "01223217314",
      "department": "infectious diseases",
      "postcode": "cb20qq"
    },
    {
      "address": "hills rd",
      "name": "addenbrookes hospital",
      "id": "22",
      "phone": "01223348169",
      "department": "haematology day unit",
      "postcode": "cb20qq"
    },
    {
      "address": "hills rd",
      "name": "addenbrookes hospital",
      "id": "23",
      "phone": "01223596203",
      "department": "clinical decisions unit",
      "postcode": "cb20qq"
    },
    {
      "address": "hills rd",
      "name": "addenbrookes hospital",
      "id": "24",
      "phone": "01223348314",
      "department": "acute medical assessment unit",
      "postcode": "cb20qq"
    },
    {
      "address": "hills rd",
      "name": "addenbrookes hospital",
      "id": "25",
      "phone": "01223348336",
      "department": "medical short stay unit",
      "postcode": "cb20qq"
    },
    {
      "address": "hills rd",
      "name": "addenbrookes hospital",
      "id": "26",
      "phone": "01223216881",
      "department": "inpatient occupational therapy",
      "postcode": "cb20qq"
    },
    {
      "address": "hills rd",
      "name": "addenbrookes hospital",
      "id": "27",
      "phone": "01223217567",
      "department": "paediatric day unit",
      "postcode": "cb20qq"
    },
    {
      "address": "hills rd",
      "name": "addenbrookes hospital",
      "id": "28",
      "phone": "01223348313",
      "department": "paediatric clinic",
      "postcode": "cb20qq"
    },
    {
      "address": "hills rd",
      "name": "addenbrookes hospital",
      "id": "29",
      "phone": "01223274744",
      "department": "medicine for the elderly",
      "postcode": "cb20qq"
    },
    {
      "address": "hills rd",
      "name": "addenbrookes hospital",
      "id": "30",
      "phone": "01223216811",
      "department": "transplant high dependency unit",
      "postcode": "cb20qq"
    },
    {
      "address": "hills rd",
      "name": "addenbrookes hospital",
      "id": "31",
      "phone": "01223217323",
      "department": "diabetes and endocrinology",
      "postcode": "cb20qq"
    },
    {
      "address": "hills rd",
      "name": "addenbrookes hospital",
      "id": "32",
      "phone": "01223586967",
      "department": "infusion services",
      "postcode": "cb20qq"
    },
    {
      "address": "hills rd",
      "name": "addenbrookes hospital",
      "id": "33",
      "phone": "01223217484",
      "department": "medicine for the elderly",
      "postcode": "cb20qq"
    },
    {
      "address": "hills rd",
      "name": "addenbrookes hospital",
      "id": "34",
      "phone": "01223217498",
      "department": "medicine for the elderly",
      "postcode": "cb20qq"
    },
    {
      "address": "hills rd",
      "name": "addenbrookes hospital",
      "id": "35",
      "phone": "01223217711",
      "department": "transplant unit",
      "postcode": "cb20qq"
    },
    {
      "address": "hills rd",
      "name": "addenbrookes hospital",
      "id": "36",
      "phone": "01223217428",
      "department": "medicine for the elderly",
      "postcode": "cb20qq"
    },
    {
      "address": "hills rd",
      "name": "addenbrookes hospital",
      "id": "37",
      "phone": "01223256583",
      "department": "theatre admissions unit",
      "postcode": "cb20qq"
    },
    {
      "address": "hills rd",
      "name": "addenbrookes hospital",
      "id": "38",
      "phone": "01223256233",
      "department": "cardiology",
      "postcode": "cb20qq"
    },
    {
      "address": "hills rd",
      "name": "addenbrookes hospital",
      "id": "39",
      "phone": "01223349881",
      "department": "major trauma unit",
      "postcode": "cb20qq"
    },
    {
      "address": "hills rd",
      "name": "addenbrookes hospital",
      "id": "40",
      "phone": "01223256459",
      "department": "cardiology and coronary care unit",
      "postcode": "cb20qq"
    },
    {
      "address": "hills rd",
      "name": "addenbrookes hospital",
      "id": "41",
      "phone": "01223348545",
      "department": "colorectal surgery",
      "postcode": "cb20qq"
    },
    {
      "address": "hills rd",
      "name": "addenbrookes hospital",
      "id": "42",
      "phone": "01223274280",
      "department": "plastic and vascular surgery plastics",
      "postcode": "cb20qq"
    },
    {
      "address": "hills rd",
      "name": "addenbrookes hospital",
      "id": "43",
      "phone": "01223274284",
      "department": "gastroenterology",
      "postcode": "cb20qq"
    },
    {
      "address": "hills rd",
      "name": "addenbrookes hospital",
      "id": "44",
      "phone": "01223348527",
      "department": "oral and maxillofacial surgery and ent",
      "postcode": "cb20qq"
    },
    {
      "address": "hills rd",
      "name": "addenbrookes hospital",
      "id": "45",
      "phone": "01223256650",
      "department": "urology",
      "postcode": "cb20qq"
    },
    {
      "address": "hills rd",
      "name": "addenbrookes hospital",
      "id": "46",
      "phone": "01223256645",
      "department": "respiratory medicine",
      "postcode": "cb20qq"
    },
    {
      "address": "hills rd",
      "name": "addenbrookes hospital",
      "id": "47",
      "phone": "01223274750",
      "department": "lewin stroke and rehabilitation unit",
      "postcode": "cb20qq"
    },
    {
      "address": "hills rd",
      "name": "addenbrookes hospital",
      "id": "48",
      "phone": "01223216348",
      "department": "neurosciences",
      "postcode": "cb20qq"
    },
    {
      "address": "hills rd",
      "name": "addenbrookes hospital",
      "id": "49",
      "phone": "01223596201",
      "department": "psychiatry",
      "postcode": "cb20qq"
    },
    {
      "address": "hills rd",
      "name": "addenbrookes hospital",
      "id": "50",
      "phone": "01223217118",
      "department": "emergency department",
      "postcode": "cb20qq"
    },
    {
      "address": "hills rd",
      "name": "addenbrookes hospital",
      "id": "51",
      "phone": "01223257168",
      "department": "cambridge eye unit",
      "postcode": "cb20qq"
    },
    {
      "address": "hills rd",
      "name": "addenbrookes hospital",
      "id": "52",
      "phone": "01223586706",
      "department": "clinical investigation ward",
      "postcode": "cb20qq"
    },
    {
      "address": "hills rd",
      "name": "addenbrookes hospital",
      "id": "53",
      "phone": "01223596055",
      "department": "clinical research facility",
      "postcode": "cb20qq"
    },
    {
      "address": "hills rd",
      "name": "addenbrookes hospital",
      "id": "54",
      "phone": "01223217297",
      "department": "coronary care unit",
      "postcode": "cb20qq"
    },
    {
      "address": "hills rd",
      "name": "addenbrookes hospital",
      "id": "55",
      "phone": "01223217873",
      "department": "intermediate dependency area",
      "postcode": "cb20qq"
    },
    {
      "address": "hills rd",
      "name": "addenbrookes hospital",
      "id": "56",
      "phone": "01223596066",
      "department": "medical decisions unit",
      "postcode": "cb20qq"
    },
    {
      "address": "hills rd",
      "name": "addenbrookes hospital",
      "id": "57",
      "phone": "01223217715",
      "department": "paediatric intensive care unit",
      "postcode": "cb20qq"
    },
    {
      "address": "hills rd",
      "name": "addenbrookes hospital",
      "id": "58",
      "phone": "01223257157",
      "department": "paediatric day unit",
      "postcode": "cb20qq"
    },
    {
      "address": "hills rd",
      "name": "addenbrookes hospital",
      "id": "59",
      "phone": "01223256166",
      "department": "john farman intensive care unit",
      "postcode": "cb20qq"
    },
    {
      "address": "hills rd",
      "name": "addenbrookes hospital",
      "id": "60",
      "phone": "01223217217",
      "department": "delivery unit",
      "postcode": "cb20qq"
    },
    {
      "address": "hills rd",
      "name": "addenbrookes hospital",
      "id": "61",
      "phone": "01223217667",
      "department": "postnatal",
      "postcode": "cb20qq"
    },
    {
      "address": "hills rd",
      "name": "addenbrookes hospital",
      "id": "62",
      "phone": "01223217678",
      "department": "neonatal unit",
      "postcode": "cb20qq"
    },
    {
      "address": "hills rd",
      "name": "addenbrookes hospital",
      "id": "63",
      "phone": "01223217671",
      "department": "antenatal",
      "postcode": "cb20qq"
    },
    {
      "address": "hills rd",
      "name": "addenbrookes hospital",
      "id": "64",
      "phone": "01223254668",
      "department": "transitional care",
      "postcode": "cb20qq"
    },
    {
      "address": "hills rd",
      "name": "addenbrookes hospital",
      "id": "65",
      "phone": "01223257206",
      "department": "gynaecology",
      "postcode": "cb20qq"
    }
  ]